STARLINK-4681
1 53594U 22104G   26090.83335647  .00786779  00000+0  26323-1 0  9991
2 53594  53.2178 143.2917 0001609  79.0706  87.1018 15.27997966  5838
